CSS (TIANHE)            
1 48274U 21035A   23269.39571811  .00024680  00000+0  26632-3 0  9994
2 48274  41.4727 260.0600 0008086 119.9329 240.2314 15.63036030137657
